{
  "type": "FeatureCollection",
  "features": [
    {
      "type": "Feature",
      "id": "supplier-1",
      "properties": {
        "entity_type": "supplier",
        "entity_id": 1,
        "name": "Harborview Industries",
        "country": "Mexico",
        "region": "North America",
        "location_basis": "synthetic_reference_point"
      },
      "geometry": {
        "type": "Point",
        "coordinates": [
          -100.5508,
          25.3354
        ]
      }
    },
    {
      "type": "Feature",
      "id": "supplier-2",
      "properties": {
        "entity_type": "supplier",
        "entity_id": 2,
        "name": "Kingsford Manufacturing",
        "country": "China",
        "region": "Asia Pacific",
        "location_basis": "synthetic_reference_point"
      },
      "geometry": {
        "type": "Point",
        "coordinates": [
          121.6025,
          31.6769
        ]
      }
    },
    {
      "type": "Feature",
      "id": "supplier-3",
      "properties": {
        "entity_type": "supplier",
        "entity_id": 3,
        "name": "Thornbury Home Goods",
        "country": "USA",
        "region": "North America",
        "location_basis": "synthetic_reference_point"
      },
      "geometry": {
        "type": "Point",
        "coordinates": [
          -87.3951,
          42.1728
        ]
      }
    },
    {
      "type": "Feature",
      "id": "supplier-4",
      "properties": {
        "entity_type": "supplier",
        "entity_id": 4,
        "name": "Ridgemont Supply Co",
        "country": "USA",
        "region": "North America",
        "location_basis": "synthetic_reference_point"
      },
      "geometry": {
        "type": "Point",
        "coordinates": [
          -87.9245,
          42.2046
        ]
      }
    },
    {
      "type": "Feature",
      "id": "supplier-5",
      "properties": {
        "entity_type": "supplier",
        "entity_id": 5,
        "name": "Blackpine Supply Co",
        "country": "Spain",
        "region": "Europe",
        "location_basis": "synthetic_reference_point"
      },
      "geometry": {
        "type": "Point",
        "coordinates": [
          -0.3957,
          39.867
        ]
      }
    },
    {
      "type": "Feature",
      "id": "supplier-6",
      "properties": {
        "entity_type": "supplier",
        "entity_id": 6,
        "name": "Copper Creek Supply Co",
        "country": "Canada",
        "region": "North America",
        "location_basis": "synthetic_reference_point"
      },
      "geometry": {
        "type": "Point",
        "coordinates": [
          -73.2232,
          45.2248
        ]
      }
    },
    {
      "type": "Feature",
      "id": "supplier-7",
      "properties": {
        "entity_type": "supplier",
        "entity_id": 7,
        "name": "Northwind Distribution",
        "country": "Poland",
        "region": "Europe",
        "location_basis": "synthetic_reference_point"
      },
      "geometry": {
        "type": "Point",
        "coordinates": [
          20.7069,
          51.995
        ]
      }
    },
    {
      "type": "Feature",
      "id": "supplier-8",
      "properties": {
        "entity_type": "supplier",
        "entity_id": 8,
        "name": "Crestline Industries",
        "country": "New Zealand",
        "region": "Asia Pacific",
        "location_basis": "synthetic_reference_point"
      },
      "geometry": {
        "type": "Point",
        "coordinates": [
          175.1815,
          -36.8644
        ]
      }
    },
    {
      "type": "Feature",
      "id": "supplier-9",
      "properties": {
        "entity_type": "supplier",
        "entity_id": 9,
        "name": "Silverbrook Foods",
        "country": "USA",
        "region": "North America",
        "location_basis": "synthetic_reference_point"
      },
      "geometry": {
        "type": "Point",
        "coordinates": [
          -87.381,
          41.5552
        ]
      }
    },
    {
      "type": "Feature",
      "id": "supplier-10",
      "properties": {
        "entity_type": "supplier",
        "entity_id": 10,
        "name": "Redstone Brands",
        "country": "Turkiye",
        "region": "Europe",
        "location_basis": "synthetic_reference_point"
      },
      "geometry": {
        "type": "Point",
        "coordinates": [
          28.8637,
          41.077
        ]
      }
    },
    {
      "type": "Feature",
      "id": "supplier-11",
      "properties": {
        "entity_type": "supplier",
        "entity_id": 11,
        "name": "Elkhorn Foods",
        "country": "Canada",
        "region": "North America",
        "location_basis": "synthetic_reference_point"
      },
      "geometry": {
        "type": "Point",
        "coordinates": [
          -73.2302,
          45.419
        ]
      }
    },
    {
      "type": "Feature",
      "id": "supplier-12",
      "properties": {
        "entity_type": "supplier",
        "entity_id": 12,
        "name": "Ironvale Consumer Products",
        "country": "USA",
        "region": "North America",
        "location_basis": "synthetic_reference_point"
      },
      "geometry": {
        "type": "Point",
        "coordinates": [
          -88.0551,
          41.6999
        ]
      }
    },
    {
      "type": "Feature",
      "id": "supplier-13",
      "properties": {
        "entity_type": "supplier",
        "entity_id": 13,
        "name": "Sandhill Industries",
        "country": "Mexico",
        "region": "North America",
        "location_basis": "synthetic_reference_point"
      },
      "geometry": {
        "type": "Point",
        "coordinates": [
          -100.6885,
          26.1084
        ]
      }
    },
    {
      "type": "Feature",
      "id": "supplier-14",
      "properties": {
        "entity_type": "supplier",
        "entity_id": 14,
        "name": "Grayrock Supply Co",
        "country": "Poland",
        "region": "Europe",
        "location_basis": "synthetic_reference_point"
      },
      "geometry": {
        "type": "Point",
        "coordinates": [
          21.1057,
          52.3232
        ]
      }
    },
    {
      "type": "Feature",
      "id": "supplier-15",
      "properties": {
        "entity_type": "supplier",
        "entity_id": 15,
        "name": "Larkspur Partners",
        "country": "Thailand",
        "region": "Asia Pacific",
        "location_basis": "synthetic_reference_point"
      },
      "geometry": {
        "type": "Point",
        "coordinates": [
          100.2636,
          13.6804
        ]
      }
    },
    {
      "type": "Feature",
      "id": "supplier-16",
      "properties": {
        "entity_type": "supplier",
        "entity_id": 16,
        "name": "Fairmont Home Goods",
        "country": "Poland",
        "region": "Europe",
        "location_basis": "synthetic_reference_point"
      },
      "geometry": {
        "type": "Point",
        "coordinates": [
          21.0387,
          51.8009
        ]
      }
    },
    {
      "type": "Feature",
      "id": "supplier-17",
      "properties": {
        "entity_type": "supplier",
        "entity_id": 17,
        "name": "Maplewood Global",
        "country": "Mexico",
        "region": "North America",
        "location_basis": "synthetic_reference_point"
      },
      "geometry": {
        "type": "Point",
        "coordinates": [
          -100.4414,
          25.339
        ]
      }
    },
    {
      "type": "Feature",
      "id": "supplier-18",
      "properties": {
        "entity_type": "supplier",
        "entity_id": 18,
        "name": "Brightwater Manufacturing",
        "country": "Turkiye",
        "region": "Europe",
        "location_basis": "synthetic_reference_point"
      },
      "geometry": {
        "type": "Point",
        "coordinates": [
          29.2837,
          40.8158
        ]
      }
    },
    {
      "type": "Feature",
      "id": "supplier-19",
      "properties": {
        "entity_type": "supplier",
        "entity_id": 19,
        "name": "Windrow Brands",
        "country": "Turkiye",
        "region": "Europe",
        "location_basis": "synthetic_reference_point"
      },
      "geometry": {
        "type": "Point",
        "coordinates": [
          29.2908,
          40.777
        ]
      }
    },
    {
      "type": "Feature",
      "id": "supplier-20",
      "properties": {
        "entity_type": "supplier",
        "entity_id": 20,
        "name": "Bayfield Global",
        "country": "Turkiye",
        "region": "Europe",
        "location_basis": "synthetic_reference_point"
      },
      "geometry": {
        "type": "Point",
        "coordinates": [
          29.0296,
          41.3064
        ]
      }
    },
    {
      "type": "Feature",
      "id": "supplier-21",
      "properties": {
        "entity_type": "supplier",
        "entity_id": 21,
        "name": "Cascadia Home Goods",
        "country": "Brazil",
        "region": "South America",
        "location_basis": "synthetic_reference_point"
      },
      "geometry": {
        "type": "Point",
        "coordinates": [
          -46.3068,
          -23.764
        ]
      }
    },
    {
      "type": "Feature",
      "id": "supplier-22",
      "properties": {
        "entity_type": "supplier",
        "entity_id": 22,
        "name": "Whitecourt Supply Co",
        "country": "Vietnam",
        "region": "Asia Pacific",
        "location_basis": "synthetic_reference_point"
      },
      "geometry": {
        "type": "Point",
        "coordinates": [
          106.2326,
          10.8072
        ]
      }
    },
    {
      "type": "Feature",
      "id": "supplier-23",
      "properties": {
        "entity_type": "supplier",
        "entity_id": 23,
        "name": "Alderwood Manufacturing",
        "country": "USA",
        "region": "North America",
        "location_basis": "synthetic_reference_point"
      },
      "geometry": {
        "type": "Point",
        "coordinates": [
          -87.5857,
          41.7493
        ]
      }
    },
    {
      "type": "Feature",
      "id": "supplier-24",
      "properties": {
        "entity_type": "supplier",
        "entity_id": 24,
        "name": "Stonebridge Consumer Products",
        "country": "Canada",
        "region": "North America",
        "location_basis": "synthetic_reference_point"
      },
      "geometry": {
        "type": "Point",
        "coordinates": [
          -73.2585,
          45.5425
        ]
      }
    },
    {
      "type": "Feature",
      "id": "warehouse-1",
      "properties": {
        "entity_type": "warehouse",
        "entity_id": 1,
        "name": "BC Lower Mainland Cross-Dock 1",
        "country": "Canada",
        "region": "BC Lower Mainland",
        "location_basis": "dimension_city_reference_point"
      },
      "geometry": {
        "type": "Point",
        "coordinates": [
          -123.1207,
          49.2827
        ]
      }
    },
    {
      "type": "Feature",
      "id": "warehouse-2",
      "properties": {
        "entity_type": "warehouse",
        "entity_id": 2,
        "name": "BC Lower Mainland Ambient DC 2",
        "country": "Canada",
        "region": "BC Lower Mainland",
        "location_basis": "dimension_city_reference_point"
      },
      "geometry": {
        "type": "Point",
        "coordinates": [
          -122.849,
          49.1913
        ]
      }
    },
    {
      "type": "Feature",
      "id": "warehouse-3",
      "properties": {
        "entity_type": "warehouse",
        "entity_id": 3,
        "name": "BC Lower Mainland Cold Chain DC 3",
        "country": "Canada",
        "region": "BC Lower Mainland",
        "location_basis": "dimension_city_reference_point"
      },
      "geometry": {
        "type": "Point",
        "coordinates": [
          -122.9805,
          49.2488
        ]
      }
    },
    {
      "type": "Feature",
      "id": "warehouse-4",
      "properties": {
        "entity_type": "warehouse",
        "entity_id": 4,
        "name": "BC Interior Cross-Dock 4",
        "country": "Canada",
        "region": "BC Interior",
        "location_basis": "dimension_city_reference_point"
      },
      "geometry": {
        "type": "Point",
        "coordinates": [
          -119.496,
          49.888
        ]
      }
    },
    {
      "type": "Feature",
      "id": "warehouse-5",
      "properties": {
        "entity_type": "warehouse",
        "entity_id": 5,
        "name": "Alberta Cross-Dock 5",
        "country": "Canada",
        "region": "Alberta",
        "location_basis": "dimension_city_reference_point"
      },
      "geometry": {
        "type": "Point",
        "coordinates": [
          -114.0719,
          51.0447
        ]
      }
    },
    {
      "type": "Feature",
      "id": "warehouse-6",
      "properties": {
        "entity_type": "warehouse",
        "entity_id": 6,
        "name": "Alberta Ambient DC 6",
        "country": "Canada",
        "region": "Alberta",
        "location_basis": "dimension_city_reference_point"
      },
      "geometry": {
        "type": "Point",
        "coordinates": [
          -113.4909,
          53.5461
        ]
      }
    },
    {
      "type": "Feature",
      "id": "warehouse-7",
      "properties": {
        "entity_type": "warehouse",
        "entity_id": 7,
        "name": "Ontario Cross-Dock 7",
        "country": "Canada",
        "region": "Ontario",
        "location_basis": "dimension_city_reference_point"
      },
      "geometry": {
        "type": "Point",
        "coordinates": [
          -79.3832,
          43.6532
        ]
      }
    },
    {
      "type": "Feature",
      "id": "warehouse-8",
      "properties": {
        "entity_type": "warehouse",
        "entity_id": 8,
        "name": "Ontario Ambient DC 8",
        "country": "Canada",
        "region": "Ontario",
        "location_basis": "dimension_city_reference_point"
      },
      "geometry": {
        "type": "Point",
        "coordinates": [
          -75.6972,
          45.4215
        ]
      }
    },
    {
      "type": "Feature",
      "id": "warehouse-9",
      "properties": {
        "entity_type": "warehouse",
        "entity_id": 9,
        "name": "Ontario Cold Chain DC 9",
        "country": "Canada",
        "region": "Ontario",
        "location_basis": "dimension_city_reference_point"
      },
      "geometry": {
        "type": "Point",
        "coordinates": [
          -79.8711,
          43.2557
        ]
      }
    },
    {
      "type": "Feature",
      "id": "warehouse-10",
      "properties": {
        "entity_type": "warehouse",
        "entity_id": 10,
        "name": "Quebec Cross-Dock 10",
        "country": "Canada",
        "region": "Quebec",
        "location_basis": "dimension_city_reference_point"
      },
      "geometry": {
        "type": "Point",
        "coordinates": [
          -73.5673,
          45.5019
        ]
      }
    }
  ]
}
